{
    "links": {
        "self": "http://www.neowsapp.com/rest/v1/neo/3406024?api_key=iIulBulltgU6a56xZRHN4H3l9WmuAYTsLGpBGhQ2"
    },
    "id": "3406024",
    "neo_reference_id": "3406024",
    "name": "(2008 EW84)",
    "designation": "2008 EW84",
    "nasa_jpl_url": "http://ssd.jpl.nasa.gov/sbdb.cgi?sstr=3406024",
    "absolute_magnitude_h": 24.5,
    "estimated_diameter": {
        "kilometers": {
            "estimated_diameter_min": 0.0334622374,
            "estimated_diameter_max": 0.0748238376
        },
        "meters": {
            "estimated_diameter_min": 33.4622374455,
            "estimated_diameter_max": 74.8238376074
        },
        "miles": {
            "estimated_diameter_min": 0.0207924639,
            "estimated_diameter_max": 0.0464933628
        },
        "feet": {
            "estimated_diameter_min": 109.7842471007,
            "estimated_diameter_max": 245.4850393757
        }
    },
    "is_potentially_hazardous_asteroid": false,
    "close_approach_data": [
        {
            "close_approach_date": "2008-03-23",
            "close_approach_date_full": "2008-Mar-23 22:46",
            "epoch_date_close_approach": 1206312360000,
            "relative_velocity": {
                "kilometers_per_second": "14.713457494",
                "kilometers_per_hour": "52968.4469784709",
                "miles_per_hour": "32912.5330683727"
            },
            "miss_distance": {
                "astronomical": "0.0599588615",
                "lunar": "23.3239971235",
                "kilometers": "8969717.968025005",
                "miles": "5573524.297574869"
            },
            "orbiting_body": "Earth"
        }
    ],
    "orbital_data": {
        "orbit_id": "6",
        "orbit_determination_date": "2017-04-06 09:04:00",
        "first_observation_date": "2008-03-12",
        "last_observation_date": "2008-03-14",
        "data_arc_in_days": 2,
        "observations_used": 16,
        "orbit_uncertainty": "9",
        "minimum_orbit_intersection": ".0140633",
        "jupiter_tisserand_invariant": "3.918",
        "epoch_osculation": "2454538.5",
        "eccentricity": ".5818597433629832",
        "semi_major_axis": "1.745917303866094",
        "inclination": "5.334646187504966",
        "ascending_node_longitude": "170.5727604764112",
        "orbital_period": "842.6242058448946",
        "perihelion_distance": ".7300383095055771",
        "perihelion_argument": "82.94482363589195",
        "aphelion_distance": "2.761796298226611",
        "perihelion_time": "2454595.289456034267",
        "mean_anomaly": "335.7374592012381",
        "mean_motion": ".427236717747777",
        "equinox": "J2000",
        "orbit_class": {
            "orbit_class_type": "APO",
            "orbit_class_description": "Near-Earth asteroid orbits which cross the Earth’s orbit similar to that of 1862 Apollo",
            "orbit_class_range": "a (semi-major axis) > 1.0 AU; q (perihelion) < 1.017 AU"
        }
    },
    "is_sentry_object": false
}